NORAD_CAT_ID,OBJECT_NAME,OBJECT_TYPE,EPOCH,MEAN_MOTION,ECCENTRICITY,INCLINATION,RA_OF_ASC_NODE,ARG_OF_PERICENTER,MEAN_ANOMALY,BSTAR,MEAN_MOTION_DOT,MEAN_MOTION_DDOT,TLE_LINE0,TLE_LINE1,TLE_LINE2,SEMIMAJOR_AXIS,PERIOD,APOGEE,PERIGEE,DECAYED
49460.0,STARLINK-3140,PAYLOAD,2022-08-07 13:17:57,15.08837892,0.0001450999999999,53.2184,340.5657,73.657,286.4582,6.670000000000001e-05,7.74e-06,0.0,0 STARLINK-3140,1 49460U 21104BE  22219.55413523  .00000774  00000-0  66700-4 0  9996,2 49460  53.2184 340.5657 0001451  73.6570 286.4582 15.08837892 42076,6917.887,95.438,540.756,538.748,0.0
49460.0,STARLINK-3140,PAYLOAD,2022-08-07 19:39:29,15.08845979,0.0001766,53.2181,339.3763,83.7351,276.3843,8.413299999999999e-05,1.051e-05,0.0,0 STARLINK-3140,1 49460U 21104BE  22219.81909040  .00001051  00000-0  84133-4 0  9998,2 49460  53.2181 339.3763 0001766  83.7351 276.3843 15.08845979 42113,6917.861999999999,95.437,540.9490000000002,538.505,0.0
49460.0,STARLINK-3140,PAYLOAD,2022-08-08 11:33:20,15.0884696,0.0001283,53.2181,336.4031,68.4624,291.6505,5.632100000000001e-05,6.09e-06,0.0,0 STARLINK-3140,1 49460U 21104BE  22220.48149021  .00000609  00000-0  56321-4 0  9994,2 49460  53.2181 336.4031 0001283  68.4624 291.6505 15.08846960 41122,6917.859,95.437,540.612,538.837,0.0
49460.0,STARLINK-3140,PAYLOAD,2022-08-08 17:54:53,15.08847192,0.0001276,53.218,335.2113,70.9635,289.1495,6.776300000000001e-05,7.91e-06,0.0,0 STARLINK-3140,1 49460U 21104BE  22220.74644771  .00000791  00000-0  67763-4 0  9999,2 49460  53.2180 335.2113 0001276  70.9635 289.1495 15.08847192 41163,6917.858,95.437,540.606,538.841,0.0
49460.0,STARLINK-3140,PAYLOAD,2022-08-09 00:16:24,15.08855883,0.0001314,53.2184,334.0239,66.7081,293.405,0.00012033,1.628e-05,0.0,0 STARLINK-3140,1 49460U 21104BE  22221.01139939  .00001628  00000-0  12033-3 0  9994,2 49460  53.2184 334.0239 0001314  66.7081 293.4050 15.08855883 42290,6917.831999999999,95.437,540.606,538.788,0.0
49460.0,STARLINK-3140,PAYLOAD,2022-08-09 06:37:57,15.08852266,0.000183,53.2178,332.8354,68.5389,291.5798,0.00014677,2.049e-05,0.0,0 STARLINK-3140,1 49460U 21104BE  22221.27636425  .00002049  00000-0  14677-3 0  9998,2 49460  53.2178 332.8354 0001830  68.5389 291.5798 15.08852266 42336,6917.843000000003,95.437,540.974,538.442,0.0
49460.0,STARLINK-3140,PAYLOAD,2022-08-09 16:10:17,15.08835019,0.0001429,53.2177,331.0503,67.9084,292.206,-0.00014156,-2.54e-05,0.0,0 STARLINK-3140,1 49460U 21104BE  22221.67381203 -.00002540  00000-0 -14156-3 0  9993,2 49460  53.2177 331.0503 0001429  67.9084 292.2060 15.08835019 41304,6917.896,95.438,540.749,538.7719999999998,0.0
49460.0,STARLINK-3140,PAYLOAD,2022-08-10 11:14:55,15.08828111,0.0001423,53.2179,327.4825,68.0348,292.0795,-0.00017147,-3.015e-05,0.0,0 STARLINK-3140,1 49460U 21104BE  22222.46869864 -.00003015  00000-0 -17147-3 0  9996,2 49460  53.2179 327.4825 0001423  68.0348 292.0795 15.08828111 41422,6917.917,95.438,540.766,538.797,0.0
49460.0,STARLINK-3140,PAYLOAD,2022-08-10 19:11:51,15.08830245,0.0001396999999999,53.217,325.9953,62.3833,297.7301,-0.00010201,-1.911e-05,0.0,0 STARLINK-3140,1 49460U 21104BE  22222.79989993 -.00001911  00000-0 -10201-3 0  9995,2 49460  53.2170 325.9953 0001397  62.3833 297.7301 15.08830245 42566,6917.91,95.438,540.742,538.809,0.0
49460.0,STARLINK-3140,PAYLOAD,2022-08-11 12:41:10,15.08750981,0.0001896,53.2169,322.7251,65.8546,294.2644,0.0024941,0.00039532,0.0,0 STARLINK-3140,1 49460U 21104BE  22223.52859123  .00039532  00000-0  24941-2 0  9991,2 49460  53.2169 322.7251 0001896  65.8546 294.2644 15.08750981 41584,6918.151999999999,95.443,541.3290000000002,538.706,0.0
49460.0,STARLINK-3140,PAYLOAD,2022-08-11 17:27:15,15.08841726,0.0001482,53.217,321.8326,63.9441,296.1704,1.9068e-05,1.6e-07,0.0,0 STARLINK-3140,1 49460U 21104BE  22223.72725994  .00000016  00000-0  19068-4 0  9992,2 49460  53.2170 321.8326 0001482  63.9441 296.1704 15.08841726 42704,6917.875,95.437,540.765,538.715,0.0
49460.0,STARLINK-3140,PAYLOAD,2022-08-12 12:31:52,15.08841825,0.0001333,53.216,318.2649,58.5703,301.5419,0.00015857,2.237e-05,0.0,0 STARLINK-3140,1 49460U 21104BE  22224.52214062  .00002237  00000-0  15857-3 0  9998,2 49460  53.2160 318.2649 0001333  58.5703 301.5419 15.08841825 41733,6917.875,95.437,540.6619999999998,538.818,0.0
49460.0,STARLINK-3140,PAYLOAD,2022-08-12 17:18:02,15.08837697,0.0001224,53.2162,317.3715,72.2326,287.88,0.0001331999999999,1.833e-05,0.0,0 STARLINK-3140,1 49460U 21104BE  22224.72086227  .00001833  00000-0  13320-3 0  9994,2 49460  53.2162 317.3715 0001224  72.2326 287.8800 15.08837697 41767,6917.887,95.438,540.599,538.906,0.0
49460.0,STARLINK-3140,PAYLOAD,2022-08-13 12:22:40,15.08836998,0.0001422,53.2164,313.8035,67.9265,292.1878,-1.6119e-05,-5.44e-06,0.0,0 STARLINK-3140,1 49460U 21104BE  22225.51574423 -.00000544  00000-0 -16119-4 0  9992,2 49460  53.2164 313.8035 0001422  67.9265 292.1878 15.08836998 41888,6917.89,95.438,540.738,538.771,0.0
49460.0,STARLINK-3140,PAYLOAD,2022-08-13 17:08:49,15.08837502,0.0001450999999999,53.2164,312.9114,66.9939,293.1206,-1.7544e-06,-3.16e-06,0.0,0 STARLINK-3140,1 49460U 21104BE  22225.71446474 -.00000316  00000-0 -17544-5 0  9999,2 49460  53.2164 312.9114 0001451  66.9939 293.1206 15.08837502 41917,6917.888000000001,95.438,540.757,538.749,0.0
49460.0,STARLINK-3140,PAYLOAD,2022-08-14 12:13:28,15.08814982,0.000162,53.2162,309.3432,72.47800000000002,287.6389,0.0011015999999999,0.00017275,0.0,0 STARLINK-3140,1 49460U 21104BE  22226.50935808  .00017275  00000-0  11016-2 0  9996,2 49460  53.2162 309.3432 0001620  72.4780 287.6389 15.08814982 43124,6917.956999999999,95.439,540.943,538.701,0.0
49460.0,STARLINK-3140,PAYLOAD,2022-08-14 15:24:13,15.08849633,0.0001506999999999,53.2163,308.7486,69.4515,290.6638,0.00014088,1.955e-05,0.0,0 STARLINK-3140,1 49460U 21104BE  22226.64181744  .00001955  00000-0  14088-3 0  9994,2 49460  53.2163 308.7486 0001507  69.4515 290.6638 15.08849633 42056,6917.851,95.437,540.758,538.673,0.0
49460.0,STARLINK-3140,PAYLOAD,2022-08-15 10:28:51,15.08838651,0.0001475,53.2159,305.1801,66.6129,293.5018,0.0001565999999999,2.205e-05,0.0,0 STARLINK-3140,1 49460U 21104BE  22227.43670409  .00002205  00000-0  15660-3 0  9999,2 49460  53.2159 305.1801 0001475  66.6129 293.5018 15.08838651 42172,6917.885,95.438,540.77,538.729,0.0
49460.0,STARLINK-3140,PAYLOAD,2022-08-15 12:04:14,15.08838831,0.0001475,53.216,304.8828,66.4267,293.688,0.00015174,2.128e-05,0.0,0 STARLINK-3140,1 49460U 21104BE  22227.50294407  .00002128  00000-0  15174-3 0  9991,2 49460  53.2160 304.8828 0001475  66.4267 293.6880 15.08838831 43270,6917.884,95.438,540.769,538.729,0.0
49460.0,STARLINK-3140,PAYLOAD,2022-08-15 16:50:23,15.08842807,0.0001489,53.2159,303.9906,63.6363,296.4782,0.00018767,2.7e-05,0.0,0 STARLINK-3140,1 49460U 21104BE  22227.70166216  .00002700  00000-0  18767-3 0  9996,2 49460  53.2159 303.9906 0001489  63.6363 296.4782 15.08842807 42219,6917.871999999999,95.437,540.7669999999998,538.707,0.0
49460.0,STARLINK-3140,PAYLOAD,2022-08-16 11:55:01,15.08837464,0.0001358,53.2169,300.4223,65.7666,294.3468,2.5723e-05,1.21e-06,0.0,0 STARLINK-3140,1 49460U 21104BE  22228.49654935  .00000121  00000-0  25723-4 0  9999,2 49460  53.2169 300.4223 0001358  65.7666 294.3468 15.08837464 43423,6917.888000000001,95.438,540.693,538.814,0.0
49460.0,STARLINK-3140,PAYLOAD,2022-08-16 13:30:24,15.08838266,0.0001405,53.217,300.1241,58.5826,301.5303,2.0854e-05,4.4e-07,0.0,0 STARLINK-3140,1 49460U 21104BE  22228.56278910  .00000044  00000-0  20854-4 0  9996,2 49460  53.2170 300.1241 0001405  58.5826 301.5303 15.08838266 42343,6917.886,95.438,540.7230000000002,538.779,0.0
49460.0,STARLINK-3140,PAYLOAD,2022-08-16 15:05:48,15.08839223,0.0001378,53.2169,299.8277,64.2061,295.9073,3.4367e-05,2.59e-06,0.0,0 STARLINK-3140,1 49460U 21104BE  22228.62902794  .00000259  00000-0  34367-4 0  9999,2 49460  53.2169 299.8277 0001378  64.2061 295.9073 15.08839223 42353,6917.8830000000025,95.438,540.701,538.794,0.0
49460.0,STARLINK-3140,PAYLOAD,2022-08-17 13:21:12,15.088324900000002,0.0001376999999999,53.2165,295.6635,59.236,300.8767,1.4451e-05,-5.8e-07,0.0,0 STARLINK-3140,1 49460U 21104BE  22229.55639340 -.00000058  00000-0  14451-4 0  9996,2 49460  53.2165 295.6635 0001377  59.2360 300.8767 15.08832490 42496,6917.903,95.438,540.721,538.816,0.0
49460.0,STARLINK-3140,PAYLOAD,2022-08-18 11:36:36,15.08841391,0.0001383,53.2154,291.501,57.879,302.2336,0.00016278,2.304e-05,0.0,0 STARLINK-3140,1 49460U 21104BE  22230.48375026  .00002304  00000-0  16278-3 0  9991,2 49460  53.2154 291.5010 0001383  57.8790 302.2336 15.08841391 42638,6917.876,95.437,540.698,538.784,0.0
49460.0,STARLINK-3140,PAYLOAD,2022-08-18 13:11:59,15.08844245,0.0001425,53.2154,291.2038,57.9478,302.1652,0.00019963,2.891e-05,0.0,0 STARLINK-3140,1 49460U 21104BE  22230.54998915  .00002891  00000-0  19963-3 0  9991,2 49460  53.2154 291.2038 0001425  57.9478 302.1652 15.08844245 42648,6917.8669999999975,95.437,540.7180000000002,538.747,0.0
49460.0,STARLINK-3140,PAYLOAD,2022-08-19 11:27:22,15.08842819,0.0001349,53.2151,287.0401,65.0493,295.0639,7.3133e-05,8.76e-06,0.0,0 STARLINK-3140,1 49460U 21104BE  22231.47734528  .00000876  00000-0  73133-4 0  9993,2 49460  53.2151 287.0401 0001349  65.0493 295.0639 15.08842819 43870,6917.871999999999,95.437,540.67,538.804,0.0
49460.0,STARLINK-3140,PAYLOAD,2022-08-20 11:18:10,15.08832527,0.0001274999999999,53.2148,282.5797,70.9275,289.1855,-8.7294e-05,-1.677e-05,0.0,0 STARLINK-3140,1 49460U 21104BE  22232.47095310 -.00001677  00000-0 -87294-4 0  9998,2 49460  53.2148 282.5797 0001275  70.9275 289.1855 15.08832527 42930,6917.903,95.438,540.65,538.886,0.0
49460.0,STARLINK-3140,PAYLOAD,2022-08-20 12:53:33,15.0883282,0.0001460999999999,53.2155,282.2829,65.7612,294.3533,-6.1333e-05,-1.264e-05,0.0,0 STARLINK-3140,1 49460U 21104BE  22232.53719307 -.00001264  00000-0 -61333-4 0  9992,2 49460  53.2155 282.2829 0001461  65.7612 294.3533 15.08832820 44035,6917.901999999999,95.438,540.778,538.757,0.0
